SL-16 R/B               
1 23705U 95058B   26163.82182263  .00000177  00000+0  11490-3 0  9996
2 23705  71.0216 340.5240 0013552 326.4608  33.5656 14.15506004581311
SL-16 R/B               
1 24298U 96051B   26163.85300051  .00000117  00000+0  90007-4 0  9994
2 24298  70.7638 333.8217 0015099 343.4342  16.6282 14.12444460535088
ORBVIEW 2 (SEASTAR)     
1 24883U 97037A   26163.21072474  .00000213  00000+0  90329-4 0  9998
2 24883  98.8683 330.0921 0003067 126.0485 234.0984 14.35551044522033
SL-16 R/B               
1 25400U 98043G   26163.87252878  .00000036  00000+0  34162-4 0  9998
2 25400  98.8363 117.9946 0010933  97.5874 262.6547 14.26067968452555
SL-16 R/B               
1 25407U 98045B   26163.85669296 -.00000178  00000+0 -65574-4 0  9991
2 25407  71.0120 341.4372 0009495 247.1100 112.9022 14.16204594440570
ISS (ZARYA)             
1 25544U 98067A   26163.80312907  .00008495  00000+0  16106-3 0  9990
2 25544  51.6335 321.7912 0004900 178.5917 181.5086 15.49196054571074
CZ-4B R/B               
1 25732U 99025C   26163.85661154  .00000038  00000+0  38749-4 0  9993
2 25732  98.6484 205.8040 0038196  71.7610 101.3339 14.18282739401659
OKEAN-O                 
1 25860U 99039A   26163.75159925  .00000566  00000+0  80811-4 0  9990
2 25860  97.9317 222.6002 0001719  74.8315 285.3087 14.80462312448458
SL-16 R/B               
1 25861U 99039B   26163.77750351  .00000455  00000+0  64388-4 0  9991
2 25861  97.9838 222.6529 0013695 312.5980  47.4076 14.81841273450947
DELTA 2 R/B             
1 25876U 99041E   26163.07924834  .00000701  00000+0  15062-3 0  9990
2 25876  51.7665 284.2011 0500870 266.9170  87.4362 14.12006774376366
HELIOS 1B               
1 25977U 99064A   26163.26973279  .00001317  00000+0  14991-3 0  9999
2 25977  98.1619  68.2671 0002472  97.5200 262.6296 14.87994678699329
TERRA                   
1 25994U 99068A   26163.85047542  .00000357  00000+0  81719-4 0  9998
2 25994  97.9457 213.5685 0001241 206.6950 269.0097 14.61099845408976
SL-16 R/B               
1 26070U 00006B   26163.26093771 -.00000263  00000+0 -10957-3 0  9991
2 26070  71.0026 258.9835 0015261  30.6962 329.5051 14.15835122361944
TITAN 4B R/B            
1 26474U 00047B   26163.82150197  .00003246  00000+0  20194-3 0  9998
2 26474  67.9874 132.8612 0045634 291.6633  67.9659 15.10173498407272
ENVISAT                 
1 27386U 02009A   26163.86848071  .00000068  00000+0  35946-4 0  9991
2 27386  98.3833 115.2832 0001340  89.7289 329.8884 14.39063892272867
IDEFIX & ARIANE 42P R/B 
1 27422U 02021B   26163.79470378  .00000190  00000+0  88864-4 0  9992
2 27422  98.5944 101.3254 0010578 268.3624  91.6347 14.31080250257622
AQUA                    
1 27424U 02022A   26163.87818542  .00000730  00000+0  15492-3 0  9999
2 27424  98.4275 133.0750 0001273  52.9522 359.8353 14.62152120282645
CZ-4B R/B               
1 27432U 02024C   26163.79441080  .00000036  00000+0  41050-4 0  9999
2 27432  98.8700 216.6430 0051158 112.4357   0.7654 14.14563609242680
MIDORI II (ADEOS-II)    
1 27597U 02056A   26163.86796536  .00000229  00000+0  10786-3 0  9998
2 27597  98.7877 123.0911 0002212  82.5344 277.6089 14.29347463223894
H-2A R/B                
1 27601U 02056E   26163.82399815  .00000166  00000+0  73069-4 0  9993
2 27601  98.3311 120.6575 0069019 237.7385 179.3357 14.33820374227741
CZ-4B R/B               
1 28059U 03049C   26163.28024595  .00000293  00000+0  78793-4 0  9994
2 28059  98.6896 161.9314 0047111 303.9306  55.7415 14.55097165200355
CZ-2C R/B               
1 28222U 04012C   26163.84966375  .00092879  00000+0  54000-3 0  9995
2 28222  97.7090 239.0106 0008960 302.6508  57.3892 15.78168610219210
SL-16 R/B               
1 28353U 04021B   26163.84785149 -.00000276  00000+0 -11887-3 0  9996
2 28353  71.0014  32.7969 0007424 259.7206 100.3079 14.14610317136299
CZ-4B R/B               
1 28415U 04035C   26163.81780311  .00008137  00000+0  27409-3 0  9992
2 28415  97.3370 196.9402 0030417 353.9091   6.1776 15.30565207194451
CZ-2C R/B               
1 28480U 04046B   26163.77414153  .00000046  00000+0  32853-4 0  9990
2 28480  98.1949  72.8306 0138291 233.4055 125.4339 14.27025586122064
ARIANE 5 R/B            
1 28499U 04049H   26163.28031602  .00000666  00000+0  79512-4 0  9994
2 28499  98.2717 335.3439 0084807  45.1959 315.6109 14.85442988159832
CZ-2D R/B               
1 28738U 05024B   26163.30941105  .00060895  00000+0  52602-3 0  9995
2 28738  97.3487 182.4962 0004215  64.2592 295.9104 15.69032407154579
ALOS (DAICHI)           
1 28931U 06002A   26163.87043633  .00000994  00000+0  17382-3 0  9998
2 28931  98.1322 119.4512 0001609  58.0608 302.0754 14.70042269 87467
H-2A R/B                
1 28932U 06002B   26163.30859510  .00007110  00000+0  34259-3 0  9995
2 28932  98.2553 318.6970 0049607 279.3537  80.2088 15.18001990108788
RESURS-DK 1             
1 29228U 06021A   26163.80473273  .00002531  00000+0  14826-3 0  9998
2 29228  69.9338 350.8971 0006750 295.1195  64.9270 15.13199413101913
CZ-4B R/B               
1 29507U 06046C   26163.83568156  .00003857  00000+0  19220-3 0  9998
2 29507  97.5457 208.4560 0031128 298.6357  61.1746 15.17753714 74470
