OBJECT_NAME,OBJECT_ID,EPOCH,MEAN_MOTION,ECCENTRICITY,INCLINATION,RA_OF_ASC_NODE,ARG_OF_PERICENTER,MEAN_ANOMALY,EPHEMERIS_TYPE,CLASSIFICATION_TYPE,NORAD_CAT_ID,ELEMENT_SET_NO,REV_AT_EPOCH,BSTAR,MEAN_MOTION_DOT,MEAN_MOTION_DDOT
SL-16 R/B,1995-058B,2026-06-12T19:43:25.475232,14.15506004,.0013552,71.0216,340.5240,326.4608,33.5656,0,U,23705,999,58131,.1149E-3,.177E-5,0
SL-16 R/B,1996-051B,2026-06-12T20:28:19.244064,14.12444460,.0015099,70.7638,333.8217,343.4342,16.6282,0,U,24298,999,53508,.90007E-4,.117E-5,0
ORBVIEW 2 (SEASTAR),1997-037A,2026-06-12T05:03:26.617536,14.35551044,.00030676,98.8683,330.0921,126.0485,234.0984,0,U,24883,999,52203,.90329138E-4,.213E-5,0
SL-16 R/B,1998-043G,2026-06-12T20:56:26.486592,14.26067968,.0010933,98.8363,117.9946,97.5874,262.6547,0,U,25400,999,45255,.34162E-4,.36E-6,0
SL-16 R/B,1998-045B,2026-06-12T20:33:38.271744,14.16204594,.0009495,71.0120,341.4372,247.1100,112.9022,0,U,25407,999,44057,-.65574E-4,-.178E-5,0
ISS (ZARYA),1998-067A,2026-06-12T19:16:30.351648,15.49196054,.00049,51.6335,321.7912,178.5917,181.5086,0,U,25544,999,57107,.16106E-3,.8495E-4,0
CZ-4B R/B,1999-025C,2026-06-12T20:33:31.237056,14.18282739,.0038196,98.6484,205.8040,71.7610,101.3339,0,U,25732,999,40165,.38749E-4,.38E-6,0
OKEAN-O,1999-039A,2026-06-12T18:02:18.175200,14.80462312,.0001719,97.9317,222.6002,74.8315,285.3087,0,U,25860,999,44845,.80811E-4,.566E-5,0
SL-16 R/B,1999-039B,2026-06-12T18:39:36.303264,14.81841273,.0013695,97.9838,222.6529,312.5980,47.4076,0,U,25861,999,45094,.64388E-4,.455E-5,0
DELTA 2 R/B,1999-041E,2026-06-12T01:54:07.056576,14.12006774,.05008705,51.7665,284.2011,266.9170,87.4362,0,U,25876,999,37636,.15061593E-3,.701E-5,0
HELIOS 1B,1999-064A,2026-06-12T06:28:24.913056,14.87994678,.00024724,98.1619,68.2671,97.5200,262.6296,0,U,25977,999,69932,.14990728E-3,.1317E-4,0
TERRA,1999-068A,2026-06-12T20:24:41.076288,14.61099845,.0001241,97.9457,213.5685,206.6950,269.0097,0,U,25994,999,40897,.81719E-4,.357E-5,0
SL-16 R/B,2000-006B,2026-06-12T06:15:45.018144,14.15835122,.00152619,71.0026,258.9835,30.6962,329.5051,0,U,26070,999,36194,-.10956804E-3,-.263E-5,0
TITAN 4B R/B,2000-047B,2026-06-12T19:42:57.770208,15.10173498,.0045634,67.9874,132.8612,291.6633,67.9659,0,U,26474,999,40727,.20194E-3,.3246E-4,0
ENVISAT,2002-009A,2026-06-12T20:50:36.733344,14.39063892,.000134,98.3833,115.2832,89.7289,329.8884,0,U,27386,999,27286,.35946E-4,.68E-6,0
IDEFIX & ARIANE 42P R/B,2002-021B,2026-06-12T19:04:22.406592,14.31080250,.0010578,98.5944,101.3254,268.3624,91.6347,0,U,27422,999,25762,.88864E-4,.19E-5,0
AQUA,2002-022A,2026-06-12T21:04:35.220288,14.62152120,.0001273,98.4275,133.0750,52.9522,359.8353,0,U,27424,999,28264,.15492E-3,.73E-5,0
CZ-4B R/B,2002-024C,2026-06-12T19:03:57.093120,14.14563609,.0051158,98.8700,216.6430,112.4357,0.7654,0,U,27432,999,24268,.4105E-4,.36E-6,0
MIDORI II (ADEOS-II),2002-056A,2026-06-12T20:49:52.207104,14.29347463,.0002212,98.7877,123.0911,82.5344,277.6089,0,U,27597,999,22389,.10786E-3,.229E-5,0
H-2A R/B,2002-056E,2026-06-12T19:46:33.440160,14.33820374,.0069019,98.3311,120.6575,237.7385,179.3357,0,U,27601,999,22774,.73069E-4,.166E-5,0
CZ-4B R/B,2003-049C,2026-06-12T06:43:33.250080,14.55097165,.00471116,98.6896,161.9314,303.9306,55.7415,0,U,28059,999,20035,.78793115E-4,.293E-5,0
CZ-2C R/B,2004-012C,2026-06-12T20:23:30.948000,15.78168610,.000896,97.7090,239.0106,302.6508,57.3892,0,U,28222,999,21921,.54E-3,.92879E-3,0
SL-16 R/B,2004-021B,2026-06-12T20:20:54.368736,14.14610317,.0007424,71.0014,32.7969,259.7206,100.3079,0,U,28353,999,13629,-.11887E-3,-.276E-5,0
CZ-4B R/B,2004-035C,2026-06-12T19:37:38.188704,15.30565207,.0030417,97.3370,196.9402,353.9091,6.1776,0,U,28415,999,19445,.27409E-3,.8137E-4,0
CZ-2C R/B,2004-046B,2026-06-12T18:34:45.828192,14.27025586,.0138291,98.1949,72.8306,233.4055,125.4339,0,U,28480,999,12206,.32853E-4,.46E-6,0
ARIANE 5 R/B,2004-049H,2026-06-12T06:43:39.304128,14.85442988,.0084807,98.2717,335.3439,45.1959,315.6109,0,U,28499,999,15983,.79512488E-4,.666E-5,0
CZ-2D R/B,2005-024B,2026-06-12T07:25:33.114720,15.69032407,.00042157,97.3487,182.4962,64.2592,295.9104,0,U,28738,999,15457,.52601961E-3,.60895E-3,0
ALOS (DAICHI),2006-002A,2026-06-12T20:53:25.698912,14.70042269,.0001609,98.1322,119.4512,58.0608,302.0754,0,U,28931,999,8746,.17382E-3,.994E-5,0
H-2A R/B,2006-002B,2026-06-12T07:24:22.616640,15.18001990,.00496071,98.2553,318.6970,279.3537,80.2088,0,U,28932,999,10878,.34259102E-3,.711E-4,0
RESURS-DK 1,2006-021A,2026-06-12T19:18:48.907872,15.13199413,.000675,69.9338,350.8971,295.1195,64.9270,0,U,29228,999,10191,.14826E-3,.2531E-4,0
CZ-4B R/B,2006-046C,2026-06-12T20:03:22.886784,15.17753714,.0031128,97.5457,208.4560,298.6357,61.1746,0,U,29507,999,7447,.1922E-3,.3857E-4,0
